STARLINK-30281
1 57716U 23129U   26061.16668981  .01155453  00000+0  52748-1 0  9993
2 57716  43.0011 160.3292 0001645 270.8527  53.6790 15.17022946  5829
